[{"OBJECT_NAME":"ALOS (DAICHI)","OBJECT_ID":"2006-002A","EPOCH":"2026-04-07T03:53:52.368288","MEAN_MOTION":14.6990466,"ECCENTRICITY":0.00012838,"INCLINATION":98.1265,"RA_OF_ASC_NODE":52.9857,"ARG_OF_PERICENTER":115.6323,"MEAN_ANOMALY":244.5015,"EPHEMERIS_TYPE":0,"CLASSIFICATION_TYPE":"U","NORAD_CAT_ID":28931,"ELEMENT_SET_NO":999,"REV_AT_EPOCH":7766,"BSTAR":0.00025307011,"MEAN_MOTION_DOT":1.465e-5,"MEAN_MOTION_DDOT":0},{"OBJECT_NAME":"H-2A R/B","OBJECT_ID":"2006-002B","EPOCH":"2026-04-06T23:27:18.729504","MEAN_MOTION":15.17110027,"ECCENTRICITY":0.00524655,"INCLINATION":98.2468,"RA_OF_ASC_NODE":246.4565,"ARG_OF_PERICENTER":144.7507,"MEAN_ANOMALY":215.7213,"EPHEMERIS_TYPE":0,"CLASSIFICATION_TYPE":"U","NORAD_CAT_ID":28932,"ELEMENT_SET_NO":999,"REV_AT_EPOCH":9872,"BSTAR":0.00059677351,"MEAN_MOTION_DOT":0.00012186,"MEAN_MOTION_DDOT":0},{"OBJECT_NAME":"RESURS-DK 1","OBJECT_ID":"2006-021A","EPOCH":"2026-04-07T03:58:08.998752","MEAN_MOTION":15.12925911,"ECCENTRICITY":0.00021711,"INCLINATION":69.9326,"RA_OF_ASC_NODE":163.3594,"ARG_OF_PERICENTER":28.5633,"MEAN_ANOMALY":331.5651,"EPHEMERIS_TYPE":0,"CLASSIFICATION_TYPE":"U","NORAD_CAT_ID":29228,"ELEMENT_SET_NO":999,"REV_AT_EPOCH":9183,"BSTAR":0.00013795414,"MEAN_MOTION_DOT":2.329e-5,"MEAN_MOTION_DDOT":0},{"OBJECT_NAME":"CZ-4B R/B","OBJECT_ID":"2006-046C","EPOCH":"2026-04-07T02:29:19.245408","MEAN_MOTION":15.17218187,"ECCENTRICITY":0.00335541,"INCLINATION":97.5532,"RA_OF_ASC_NODE":141.9328,"ARG_OF_PERICENTER":166.4422,"MEAN_ANOMALY":193.772,"EPHEMERIS_TYPE":0,"CLASSIFICATION_TYPE":"U","NORAD_CAT_ID":29507,"ELEMENT_SET_NO":999,"REV_AT_EPOCH":6435,"BSTAR":0.00024265999,"MEAN_MOTION_DOT":4.824e-5,"MEAN_MOTION_DDOT":0},{"OBJECT_NAME":"CZ-2C R/B","OBJECT_ID":"2007-010B","EPOCH":"2026-04-07T06:11:52.395648","MEAN_MOTION":14.20257533,"ECCENTRICITY":0.00584943,"INCLINATION":98.4007,"RA_OF_ASC_NODE":209.1092,"ARG_OF_PERICENTER":210.1433,"MEAN_ANOMALY":149.6374,"EPHEMERIS_TYPE":0,"CLASSIFICATION_TYPE":"U","NORAD_CAT_ID":31114,"ELEMENT_SET_NO":999,"REV_AT_EPOCH":98377,"BSTAR":9.9497297e-5,"MEAN_MOTION_DOT":1.75e-6,"MEAN_MOTION_DDOT":0},{"OBJECT_NAME":"COSMO-SKYMED 1","OBJECT_ID":"2007-023A","EPOCH":"2026-04-07T06:42:27.192096","MEAN_MOTION":14.96764581,"ECCENTRICITY":0.00017487,"INCLINATION":97.8883,"RA_OF_ASC_NODE":288.5453,"ARG_OF_PERICENTER":95.6017,"MEAN_ANOMALY":264.5403,"EPHEMERIS_TYPE":0,"CLASSIFICATION_TYPE":"U","NORAD_CAT_ID":31598,"ELEMENT_SET_NO":999,"REV_AT_EPOCH":1918,"BSTAR":0.00040013657,"MEAN_MOTION_DOT":4.518e-5,"MEAN_MOTION_DDOT":0},{"OBJECT_NAME":"COSMOS 2428","OBJECT_ID":"2007-029A","EPOCH":"2026-04-07T04:57:37.187424","MEAN_MOTION":14.12948965,"ECCENTRICITY":0.00096818,"INCLINATION":70.9417,"RA_OF_ASC_NODE":143.4913,"ARG_OF_PERICENTER":247.376,"MEAN_ANOMALY":112.6337,"EPHEMERIS_TYPE":0,"CLASSIFICATION_TYPE":"U","NORAD_CAT_ID":31792,"ELEMENT_SET_NO":999,"REV_AT_EPOCH":96812,"BSTAR":-1.1590338e-5,"MEAN_MOTION_DOT":-7.0e-7,"MEAN_MOTION_DDOT":0},{"OBJECT_NAME":"SL-16 R/B","OBJECT_ID":"2007-029B","EPOCH":"2026-04-07T04:48:15.500160","MEAN_MOTION":14.14843543,"ECCENTRICITY":0.00029222,"INCLINATION":70.9735,"RA_OF_ASC_NODE":112.4542,"ARG_OF_PERICENTER":275.8205,"MEAN_ANOMALY":159.7755,"EPHEMERIS_TYPE":0,"CLASSIFICATION_TYPE":"U","NORAD_CAT_ID":31793,"ELEMENT_SET_NO":999,"REV_AT_EPOCH":96940,"BSTAR":-6.8659656e-5,"MEAN_MOTION_DOT":-1.8e-6,"MEAN_MOTION_DDOT":0},{"OBJECT_NAME":"KORONAS-FOTON","OBJECT_ID":"2009-003A","EPOCH":"2026-04-06T21:31:26.459328","MEAN_MOTION":15.44160257,"ECCENTRICITY":0.0011312,"INCLINATION":82.4292,"RA_OF_ASC_NODE":246.5312,"ARG_OF_PERICENTER":57.511,"MEAN_ANOMALY":302.723,"EPHEMERIS_TYPE":0,"CLASSIFICATION_TYPE":"U","NORAD_CAT_ID":33504,"ELEMENT_SET_NO":999,"REV_AT_EPOCH":95009,"BSTAR":0.0003534,"MEAN_MOTION_DOT":0.00016275,"MEAN_MOTION_DDOT":0},{"OBJECT_NAME":"CZ-2C R/B","OBJECT_ID":"2011-030B","EPOCH":"2026-04-06T22:00:00.535104","MEAN_MOTION":14.81325455,"ECCENTRICITY":0.0050953,"INCLINATION":97.8591,"RA_OF_ASC_NODE":53.626,"ARG_OF_PERICENTER":258.2297,"MEAN_ANOMALY":168.2266,"EPHEMERIS_TYPE":0,"CLASSIFICATION_TYPE":"U","NORAD_CAT_ID":37731,"ELEMENT_SET_NO":999,"REV_AT_EPOCH":79427,"BSTAR":0.00019699,"MEAN_MOTION_DOT":1.517e-5,"MEAN_MOTION_DDOT":0},{"OBJECT_NAME":"H-2A R/B","OBJECT_ID":"2012-025E","EPOCH":"2026-04-07T04:03:09.225792","MEAN_MOTION":14.95370412,"ECCENTRICITY":0.00435363,"INCLINATION":98.4775,"RA_OF_ASC_NODE":66.5087,"ARG_OF_PERICENTER":218.4524,"MEAN_ANOMALY":141.359,"EPHEMERIS_TYPE":0,"CLASSIFICATION_TYPE":"U","NORAD_CAT_ID":38341,"ELEMENT_SET_NO":999,"REV_AT_EPOCH":75247,"BSTAR":0.00024211312,"MEAN_MOTION_DOT":2.652e-5,"MEAN_MOTION_DDOT":0},{"OBJECT_NAME":"SHIJIAN-16 (SJ-16)","OBJECT_ID":"2013-057A","EPOCH":"2026-04-07T06:05:06.962784","MEAN_MOTION":14.92448143,"ECCENTRICITY":0.00154241,"INCLINATION":74.9704,"RA_OF_ASC_NODE":131.0126,"ARG_OF_PERICENTER":38.6177,"MEAN_ANOMALY":321.6111,"EPHEMERIS_TYPE":0,"CLASSIFICATION_TYPE":"U","NORAD_CAT_ID":39358,"ELEMENT_SET_NO":999,"REV_AT_EPOCH":67576,"BSTAR":0.00012639684,"MEAN_MOTION_DOT":1.269e-5,"MEAN_MOTION_DDOT":0},{"OBJECT_NAME":"SL-4 R/B","OBJECT_ID":"2014-021B","EPOCH":"2026-04-07T06:03:00.636480","MEAN_MOTION":15.40275035,"ECCENTRICITY":0.00939639,"INCLINATION":51.606,"RA_OF_ASC_NODE":197.8311,"ARG_OF_PERICENTER":207.222,"MEAN_ANOMALY":152.3822,"EPHEMERIS_TYPE":0,"CLASSIFICATION_TYPE":"U","NORAD_CAT_ID":39679,"ELEMENT_SET_NO":999,"REV_AT_EPOCH":66067,"BSTAR":0.00036428622,"MEAN_MOTION_DOT":0.00017019,"MEAN_MOTION_DDOT":0},{"OBJECT_NAME":"ALOS-2","OBJECT_ID":"2014-029A","EPOCH":"2026-04-07T06:14:14.541792","MEAN_MOTION":14.79458716,"ECCENTRICITY":0.00017781,"INCLINATION":97.9197,"RA_OF_ASC_NODE":195.4417,"ARG_OF_PERICENTER":93.7333,"MEAN_ANOMALY":266.4082,"EPHEMERIS_TYPE":0,"CLASSIFICATION_TYPE":"U","NORAD_CAT_ID":39766,"ELEMENT_SET_NO":999,"REV_AT_EPOCH":64109,"BSTAR":-8.67253e-6,"MEAN_MOTION_DOT":-1.16e-6,"MEAN_MOTION_DDOT":0},{"OBJECT_NAME":"YAOGAN-29","OBJECT_ID":"2015-069A","EPOCH":"2026-04-07T06:25:05.147616","MEAN_MOTION":14.83028447,"ECCENTRICITY":2.766e-5,"INCLINATION":98.0099,"RA_OF_ASC_NODE":125.7684,"ARG_OF_PERICENTER":171.1006,"MEAN_ANOMALY":189.0212,"EPHEMERIS_TYPE":0,"CLASSIFICATION_TYPE":"U","NORAD_CAT_ID":41038,"ELEMENT_SET_NO":999,"REV_AT_EPOCH":56011,"BSTAR":3.016609e-5,"MEAN_MOTION_DOT":1.91e-6,"MEAN_MOTION_DDOT":0},{"OBJECT_NAME":"ASTRO-H (HITOMI)","OBJECT_ID":"2016-012A","EPOCH":"2026-04-06T22:10:59.023200","MEAN_MOTION":15.10195658,"ECCENTRICITY":0.0009683,"INCLINATION":30.9984,"RA_OF_ASC_NODE":174.3161,"ARG_OF_PERICENTER":255.6402,"MEAN_ANOMALY":104.3161,"EPHEMERIS_TYPE":0,"CLASSIFICATION_TYPE":"U","NORAD_CAT_ID":41337,"ELEMENT_SET_NO":999,"REV_AT_EPOCH":55650,"BSTAR":0.00018951,"MEAN_MOTION_DOT":3.271e-5,"MEAN_MOTION_DDOT":0}]
