ALOS (DAICHI)           
1 28931U 06002A   26097.16241167  .00001465  00000+0  25307-3 0  9998
2 28931  98.1265  52.9857 0001283 115.6323 244.5015 14.69904660 77669
H-2A R/B                
1 28932U 06002B   26096.97730011  .00012186  00000+0  59677-3 0  9997
2 28932  98.2468 246.4565 0052465 144.7507 215.7213 15.17110027 98727
RESURS-DK 1             
1 29228U 06021A   26097.16538193  .00002329  00000+0  13795-3 0  9995
2 29228  69.9326 163.3594 0002171  28.5633 331.5651 15.12925911 91830
CZ-4B R/B               
1 29507U 06046C   26097.10369497  .00004824  00000+0  24266-3 0  9992
2 29507  97.5532 141.9328 0033554 166.4422 193.7720 15.17218187 64357
CZ-2C R/B               
1 31114U 07010B   26097.25824532  .00000175  00000+0  99497-4 0  9997
2 31114  98.4007 209.1092 0058494 210.1433 149.6374 14.20257533983777
COSMO-SKYMED 1          
1 31598U 07023A   26097.27948139  .00004518  00000+0  40014-3 0  9994
2 31598  97.8883 288.5453 0001748  95.6017 264.5403 14.96764581 19188
COSMOS 2428             
1 31792U 07029A   26097.20668041 -.00000070  00000+0 -11590-4 0  9999
2 31792  70.9417 143.4913 0009681 247.3760 112.6337 14.12948965968128
SL-16 R/B               
1 31793U 07029B   26097.20017940 -.00000180  00000+0 -68660-4 0  9998
2 31793  70.9735 112.4542 0002922 275.8205 159.7755 14.14843543969403
KORONAS-FOTON           
1 33504U 09003A   26096.89683402  .00016275  00000+0  35340-3 0  9998
2 33504  82.4292 246.5312 0011312  57.5110 302.7230 15.44160257950099
CZ-2C R/B               
1 37731U 11030B   26096.91667286  .00001517  00000+0  19699-3 0  9994
2 37731  97.8591  53.6260 0050953 258.2297 168.2266 14.81325455794279
H-2A R/B                
1 38341U 12025E   26097.16885678  .00002652  00000+0  24211-3 0  9999
2 38341  98.4775  66.5087 0043536 218.4524 141.3590 14.95370412752474
SHIJIAN-16 (SJ-16)      
1 39358U 13057A   26097.25355281  .00001269  00000+0  12640-3 0  9992
2 39358  74.9704 131.0126 0015424  38.6177 321.6111 14.92448143675769
SL-4 R/B                
1 39679U 14021B   26097.25209070  .00017019  00000+0  36429-3 0  9995
2 39679  51.6060 197.8311 0093963 207.2220 152.3822 15.40275035660679
ALOS-2                  
1 39766U 14029A   26097.25989053 -.00000116  00000+0 -86725-5 0  9994
2 39766  97.9197 195.4417 0001778  93.7333 266.4082 14.79458716641097
YAOGAN-29               
1 41038U 15069A   26097.26742069  .00000191  00000+0  30166-4 0  9997
2 41038  98.0099 125.7684 0000276 171.1006 189.0212 14.83028447560114
ASTRO-H (HITOMI)        
1 41337U 16012A   26096.92429425  .00003271  00000+0  18951-3 0  9997
2 41337  30.9984 174.3161 0009683 255.6402 104.3161 15.10195658556504
